      2.10          N: GNSS NAV DATA                        RINEX VERSION / TYPE
fic2rin                                 06/08/2023 00:18:01 PGM / RUN BY / DATE
                                                            END OF HEADER
15 23  6  7 17 59 44.0  .467258505523D-04  .352429196937D-11  .000000000000D+00
     .170000000000D+02 -.813750000000D+02  .463662170533D-08 -.273501190859D+01
    -.418908894062D-05  .149286777014D-01  .111963599920D-04  .515374029350D+04
     .323984000000D+06  .875443220139D-07 -.220446883691D+01 -.689178705215D-07
     .932450979846D+00  .144218750000D+03  .120177200094D+01 -.772675042160D-08
     .361443627006D-09  .100000000000D+01  .226500000000D+04  .000000000000D+00
     .240000000000D+01  .000000000000D+00 -.107102096081D-07  .170000000000D+02
     .316800000000D+06  .400000000000D+01
2  23  6  7 18  0  0.0 -.588001683354D-03  .409272615798D-11  .000000000000D+00
     .820000000000D+02  .653125000000D+02  .468626663039D-08 -.137606226444D+01
     .368617475033D-05  .173024679534D-01  .247545540333D-05  .515949743080D+04
     .324000000000D+06 -.435858964920D-06  .204448076714D+01  .217929482460D-06
     .967288824674D+00  .339656250000D+03 -.127808173735D+01 -.845213777975D-08
     .146434671020D-09  .100000000000D+01  .226500000000D+04  .000000000000D+00
     .240000000000D+01  .000000000000D+00 -.176951289177D-07  .820000000000D+02
     .316800000000D+06  .400000000000D+01
1  23  6  7 18  0  0.0  .179872848094D-03 -.250111042988D-11  .000000000000D+00
     .460000000000D+02  .445000000000D+02  .411660004434D-08  .231399306184D+01
     .201538205147D-05  .129203752149D-01  .188313424587D-05  .515364303017D+04
     .324000000000D+06 -.102445483208D-06  .214337426629D+01 -.208616256714D-06
     .989868342024D+00  .357406250000D+03  .972292855923D+00 -.793568769610D-08
     .789318592573D-10  .100000000000D+01  .226500000000D+04  .000000000000D+00
     .340000000000D+01  .000000000000D+00  .465661287308D-08  .460000000000D+02
     .316800000000D+06  .400000000000D+01
5  23  6  7 18  0  0.0 -.130212865770D-03 -.147792889038D-11  .000000000000D+00
     .550000000000D+02 -.119656250000D+03  .439232581514D-08 -.137101665998D+01
    -.623241066933D-05  .597996683791D-02  .516884028912D-05  .515368044281D+04
     .324000000000D+06  .540167093277D-07  .312699694290D+01  .115483999252D-06
     .966531191104D+00  .281281250000D+03  .115772028843D+01 -.809176562595D-08
    -.301798285396D-09  .100000000000D+01  .226500000000D+04  .000000000000D+00
     .240000000000D+01  .000000000000D+00 -.111758708954D-07  .550000000000D+02
     .316800000000D+06  .400000000000D+01
4  23  6  7 18  0  0.0  .620819628239D-04  .102318153949D-10  .000000000000D+00
     .400000000000D+02 -.579687500000D+02  .419910348094D-08 -.224074703430D+01
    -.303983688354D-05  .240227859467D-02  .101607292891D-04  .515366354370D+04
     .324000000000D+06 -.558793544769D-08 -.202901079612D+01  .335276126862D-07
     .962662126810D+00  .185062500000D+03 -.297574761867D+01 -.768103423162D-08
     .378587198248D-09  .100000000000D+01  .226500000000D+04  .000000000000D+00
     .240000000000D+01  .000000000000D+00 -.465661287308D-08  .400000000000D+02
     .316800000000D+06  .400000000000D+01
3  23  6  7 18  0  0.0 -.278375577182D-03  .129602995003D-10  .000000000000D+00
     .950000000000D+02 -.113906250000D+03  .410445668138D-08  .115265493165D+01
    -.596791505814D-05  .489188579377D-02  .517815351486D-05  .515366097832D+04
     .324000000000D+06 -.465661287308D-07 -.310948918259D+01  .111758708954D-07
     .979513885394D+00  .291937500000D+03  .103549176398D+01 -.800997650482D-08
    -.279297348141D-09  .100000000000D+01  .226500000000D+04  .000000000000D+00
     .340000000000D+01  .000000000000D+00  .186264514923D-08  .950000000000D+02
     .316800000000D+06  .400000000000D+01
20 23  6  7 18  0  0.0  .429280102253D-03 -.204636307899D-11  .000000000000D+00
     .900000000000D+01 -.118500000000D+03  .480841457548D-08  .313248299688D+01
    -.628642737865D-05  .405998516362D-02  .374205410480D-05  .515355996895D+04
     .324000000000D+06 -.102445483208D-06  .300442801058D+01 -.391155481339D-07
     .949009069328D+00  .297750000000D+03 -.288010299724D+01 -.829570269217D-08
    -.319299014371D-09  .100000000000D+01  .226500000000D+04  .000000000000D+00
     .240000000000D+01  .000000000000D+00 -.838190317154D-08  .900000000000D+01
     .316800000000D+06  .400000000000D+01
12 23  6  7 18  0  0.0 -.385715160519D-03 -.466116034659D-11  .000000000000D+00
     .530000000000D+02  .208750000000D+02  .441982696068D-08  .937680939775D+00
     .955536961555D-06  .876498850994D-02  .911951065063D-05  .515359133339D+04
     .324000000000D+06 -.106170773506D-06  .100880310138D+00  .931322574615D-08
     .965687050799D+00  .204531250000D+03  .137641514954D+01 -.794711674360D-08
    -.440375486264D-09  .100000000000D+01  .226500000000D+04  .000000000000D+00
     .240000000000D+01  .000000000000D+00 -.125728547573D-07  .530000000000D+02
     .316800000000D+06  .400000000000D+01
10 23  6  7 18  0  0.0 -.401902943850D-04 -.159161572810D-11  .000000000000D+00
     .560000000000D+02 -.134437500000D+03  .419374611493D-08  .223823788988D+00
    -.691786408424D-05  .852869171649D-02  .474974513054D-05  .515369260788D+04
     .324000000000D+06  .111758708954D-07 -.311213268288D+01  .134110450745D-06
     .979244648487D+00  .295062500000D+03 -.243423337822D+01 -.820569894316D-08
    -.355729103259D-09  .100000000000D+01  .226500000000D+04  .000000000000D+00
     .240000000000D+01  .000000000000D+00  .232830643654D-08  .560000000000D+02
     .316800000000D+06  .400000000000D+01
9  23  6  7 18  0  0.0 -.141135882586D-03  .875388650456D-11  .000000000000D+00
     .870000000000D+02 -.549062500000D+02  .437518224390D-08 -.133518327161D+01
    -.291690230370D-05  .237612216733D-02  .100526958704D-04  .515360679245D+04
     .324000000000D+06 -.186264514923D-08 -.208579556619D+01  .372529029846D-07
     .956005703258D+00  .182718750000D+03  .195034514425D+01 -.786497046473D-08
     .312513017422D-09  .100000000000D+01  .226500000000D+04  .000000000000D+00
     .340000000000D+01  .000000000000D+00  .931322574615D-09  .870000000000D+02
     .316800000000D+06  .400000000000D+01
7  23  6  7 18  0  0.0  .158390961587D-03 -.989075488178D-11  .000000000000D+00
     .104000000000D+03  .593750000000D+01  .499842249007D-08  .167284037949D+01
     .165775418282D-06  .173825171078D-01  .688992440701D-05  .515373765182D+04
     .324000000000D+06 -.422820448875D-06 -.101366611026D+01 -.160187482834D-06
     .950021834348D+00  .244687500000D+03 -.219101109508D+01 -.825070081766D-08
     .209651589973D-09  .100000000000D+01  .226500000000D+04  .000000000000D+00
     .240000000000D+01  .000000000000D+00 -.111758708954D-07  .104000000000D+03
     .316800000000D+06  .400000000000D+01
6  23  6  7 18  0  0.0  .586096663028D-03 -.159161572810D-11  .000000000000D+00
     .106000000000D+03  .385937500000D+02  .418910306439D-08  .249422634080D+01
     .227615237236D-05  .272921903525D-02  .175274908543D-05  .515368139267D+04
     .324000000000D+06  .130385160446D-06  .213504481744D+01  .111758708954D-06
     .989071933810D+00  .360000000000D+03 -.739444373581D+00 -.815033949435D-08
     .414302971667D-10  .100000000000D+01  .226500000000D+04  .000000000000D+00
     .240000000000D+01  .000000000000D+00  .372529029846D-08  .106000000000D+03
     .316800000000D+06  .400000000000D+01
31 23  6  7 18  0  0.0 -.217685010284D-03 -.795807864051D-12  .000000000000D+00
     .380000000000D+02  .406250000000D+01  .482698677766D-08  .750576679846D+00
     .406056642532D-06  .103284487268D-01  .659935176373D-05  .515356211281D+04
     .324000000000D+06 -.115483999252D-06 -.993615678367D+00  .188127160072D-06
     .954115155206D+00  .249625000000D+03  .541807141516D+00 -.810855203945D-08
     .180364655769D-09  .100000000000D+01  .226500000000D+04  .000000000000D+00
     .240000000000D+01  .000000000000D+00 -.135041773319D-07  .380000000000D+02
     .316800000000D+06  .400000000000D+01
32 23  6  7 18  0  0.0 -.494973268360D-03 -.864019966684D-11  .000000000000D+00
     .250000000000D+02 -.695625000000D+02  .427874965567D-08 -.113442418553D+01
    -.365264713764D-05  .693903968204D-02  .108592212200D-04  .515375644302D+04
     .324000000000D+06  .176951289177D-06 -.207257970032D+01  .167638063431D-06
     .959610776669D+00  .171031250000D+03 -.220177572176D+01 -.779675333750D-08
     .302869758598D-09  .100000000000D+01  .226500000000D+04  .000000000000D+00
     .240000000000D+01  .000000000000D+00  .465661287308D-09  .250000000000D+02
     .316800000000D+06  .400000000000D+01
26 23  6  7 18  0  0.0  .239525921643D-03 -.795807864051D-12  .000000000000D+00
     .210000000000D+02  .615625000000D+01  .523843248745D-08  .582036821084D-01
     .443309545517D-06  .792315078434D-02  .811181962490D-05  .515369444466D+04
     .324000000000D+06  .111758708954D-06 -.373677626887D-01  .875443220139D-07
     .934120119635D+00  .209718750000D+03  .463336917945D+00 -.833320425426D-08
    -.411088552060D-09  .100000000000D+01  .226500000000D+04  .000000000000D+00
     .240000000000D+01  .000000000000D+00  .698491930962D-08  .210000000000D+02
     .316800000000D+06  .400000000000D+01
25 23  6  7 18  0  0.0  .448247417808D-03  .261479726760D-11  .000000000000D+00
     .190000000000D+02  .153437500000D+02  .477162732886D-08  .766880740918D+00
     .583007931709D-06  .110802677227D-01  .867433845997D-05  .515372066116D+04
     .324000000000D+06 -.102445483208D-06  .184823607217D-01  .614672899246D-07
     .953365346785D+00  .208437500000D+03  .105083899909D+01 -.814855370568D-08
    -.515378610445D-09  .100000000000D+01  .226500000000D+04  .000000000000D+00
     .240000000000D+01  .000000000000D+00  .558793544769D-08  .190000000000D+02
     .316800000000D+06  .400000000000D+01
